{
 "type": "FeatureCollection",
 "name": "comas_distrito",
 "metadata": {
  "fuente": "https://www.openstreetmap.org/relation/1944720",
  "atribucion": "(c) OpenStreetMap contributors (ODbL)",
  "wikidata": "Q1113426",
  "wikipedia": "es:Distrito de Comas",
  "area_km2_calculada": 48.97,
  "area_km2_oficial": 48.72
 },
 "features": [
  {
   "type": "Feature",
   "properties": {
    "nombre": "Distrito de Comas",
    "provincia": "Lima",
    "departamento": "Lima",
    "pais": "Peru",
    "osm_relation": 1944720,
    "wikidata": "Q1113426",
    "area_km2": 48.97,
    "fuente": "https://www.openstreetmap.org/relation/1944720",
    "atribucion": "(c) OpenStreetMap contributors (ODbL)"
   },
   "geometry": {
    "type": "Polygon",
    "coordinates": [
     [
      [
       -77.055478,
       -11.892694
      ],
      [
       -77.05328,
       -11.88836
      ],
      [
       -77.05171,
       -11.88761
      ],
      [
       -77.05095,
       -11.88781
      ],
      [
       -77.046707,
       -11.893624
      ],
      [
       -77.04789,
       -11.896584
      ],
      [
       -77.045586,
       -11.897865
      ],
      [
       -77.044539,
       -11.895991
      ],
      [
       -77.04427,
       -11.89615
      ],
      [
       -77.043646,
       -11.895657
      ],
      [
       -77.043223,
       -11.895895
      ],
      [
       -77.04213,
       -11.894511
      ],
      [
       -77.040676,
       -11.895363
      ],
      [
       -77.039303,
       -11.897924
      ],
      [
       -77.038685,
       -11.898319
      ],
      [
       -77.038593,
       -11.89933
      ],
      [
       -77.033124,
       -11.90767
      ],
      [
       -77.032143,
       -11.907353
      ],
      [
       -77.031489,
       -11.907607
      ],
      [
       -77.031932,
       -11.90817
      ],
      [
       -77.031013,
       -11.908975
      ],
      [
       -77.030542,
       -11.909878
      ],
      [
       -77.029678,
       -11.910078
      ],
      [
       -77.027947,
       -11.909505
      ],
      [
       -77.025482,
       -11.909278
      ],
      [
       -77.024383,
       -11.908801
      ],
      [
       -77.021236,
       -11.906038
      ],
      [
       -77.019652,
       -11.905099
      ],
      [
       -77.017086,
       -11.904507
      ],
      [
       -77.014256,
       -11.90323
      ],
      [
       -77.010898,
       -11.903863
      ],
      [
       -77.005946,
       -11.903874
      ],
      [
       -77.004731,
       -11.903462
      ],
      [
       -77.000317,
       -11.899893
      ],
      [
       -76.999705,
       -11.899798
      ],
      [
       -76.996094,
       -11.899513
      ],
      [
       -76.994161,
       -11.900326
      ],
      [
       -76.992165,
       -11.900706
      ],
      [
       -76.990523,
       -11.900129
      ],
      [
       -76.987955,
       -11.897146
      ],
      [
       -76.988604,
       -11.899401
      ],
      [
       -76.988573,
       -11.901276
      ],
      [
       -76.989127,
       -11.903889
      ],
      [
       -76.990541,
       -11.907301
      ],
      [
       -76.990602,
       -11.908469
      ],
      [
       -76.990141,
       -11.911543
      ],
      [
       -76.990202,
       -11.91351
      ],
      [
       -76.988759,
       -11.915223
      ],
      [
       -76.988389,
       -11.916308
      ],
      [
       -76.988973,
       -11.9168
      ],
      [
       -76.992754,
       -11.916861
      ],
      [
       -76.995674,
       -11.917322
      ],
      [
       -76.998256,
       -11.91972
      ],
      [
       -76.99926,
       -11.921045
      ],
      [
       -76.999609,
       -11.922855
      ],
      [
       -77.000285,
       -11.924024
      ],
      [
       -77.002221,
       -11.925346
      ],
      [
       -77.004589,
       -11.928173
      ],
      [
       -77.006495,
       -11.931493
      ],
      [
       -77.016178,
       -11.936811
      ],
      [
       -77.016762,
       -11.937795
      ],
      [
       -77.016393,
       -11.941822
      ],
      [
       -77.017008,
       -11.943851
      ],
      [
       -77.017639,
       -11.949582
      ],
      [
       -77.019006,
       -11.951505
      ],
      [
       -77.024016,
       -11.955532
      ],
      [
       -77.027121,
       -11.958883
      ],
      [
       -77.028281,
       -11.960678
      ],
      [
       -77.032935,
       -11.961744
      ],
      [
       -77.03918,
       -11.965242
      ],
      [
       -77.040374,
       -11.965569
      ],
      [
       -77.044395,
       -11.965553
      ],
      [
       -77.047126,
       -11.96637
      ],
      [
       -77.050183,
       -11.969199
      ],
      [
       -77.051801,
       -11.969689
      ],
      [
       -77.053444,
       -11.972781
      ],
      [
       -77.055729,
       -11.974172
      ],
      [
       -77.056443,
       -11.975187
      ],
      [
       -77.057607,
       -11.975141
      ],
      [
       -77.058124,
       -11.976842
      ],
      [
       -77.059352,
       -11.977123
      ],
      [
       -77.059969,
       -11.976858
      ],
      [
       -77.065152,
       -11.952461
      ],
      [
       -77.069848,
       -11.953159
      ],
      [
       -77.070854,
       -11.947022
      ],
      [
       -77.073618,
       -11.917719
      ],
      [
       -77.07224,
       -11.91662
      ],
      [
       -77.069788,
       -11.91049
      ],
      [
       -77.068426,
       -11.908743
      ],
      [
       -77.067359,
       -11.908126
      ],
      [
       -77.066807,
       -11.907345
      ],
      [
       -77.065635,
       -11.904526
      ],
      [
       -77.063476,
       -11.900929
      ],
      [
       -77.0583,
       -11.89589
      ],
      [
       -77.0577,
       -11.89487
      ],
      [
       -77.055478,
       -11.892694
      ]
     ]
    ]
   }
  }
 ]
}